OBJECT_NAME,OBJECT_ID,EPOCH,MEAN_MOTION,ECCENTRICITY,INCLINATION,RA_OF_ASC_NODE,ARG_OF_PERICENTER,MEAN_ANOMALY,EPHEMERIS_TYPE,CLASSIFICATION_TYPE,NORAD_CAT_ID,ELEMENT_SET_NO,REV_AT_EPOCH,BSTAR,MEAN_MOTION_DOT,MEAN_MOTION_DDOT
ONEWEB-0198,2021-031G,2026-06-30T07:39:18.327168,13.14503385,.00023392,87.8963,287.0938,107.8553,252.2832,0,U,48216,999,25021,-.36486863E-3,-.122E-5,0
ONEWEB-0189,2021-031H,2026-06-30T17:05:24.873216,13.14503215,.00022119,87.8974,287.0031,107.1281,253.0091,0,U,48217,999,25000,-.87560079E-3,-.312E-5,0
ONEWEB-0196,2021-031J,2026-06-30T16:33:26.854560,13.14502945,.00021122,87.8975,287.0160,101.8402,258.2965,0,U,48218,999,25000,-.42195343E-3,-.144E-5,0
ONEWEB-0183,2021-031K,2026-06-30T17:46:30.899424,13.14504434,.00019999,87.8970,287.0039,94.8087,265.3271,0,U,48219,999,25010,.54530761E-3,.215E-5,0
ONEWEB-0185,2021-031L,2026-06-30T16:34:35.073408,13.14503111,.00023439,87.8980,287.0084,94.5838,265.5560,0,U,48220,999,25002,-.19758907E-3,-.6E-6,0
ONEWEB-0187,2021-031M,2026-06-30T17:55:27.353568,13.14502218,.00021826,87.8969,287.0114,100.7719,259.3657,0,U,48221,999,25004,.72731513E-3,.282E-5,0
ONEWEB-0192,2021-031N,2026-06-30T17:12:16.562304,13.14502800,.00020462,87.8971,287.0080,103.4624,256.6734,0,U,48222,999,24995,-.25839879E-3,-.83E-6,0
ONEWEB-0219,2021-031P,2026-06-30T07:34:31.454976,13.14502269,.00022248,87.8975,287.0802,99.2604,260.8778,0,U,48223,999,25010,-.25418434E-3,-.81E-6,0
ONEWEB-0202,2021-031Q,2026-06-30T18:04:47.920224,13.14503496,.00023003,87.8974,287.0056,116.6575,243.4791,0,U,48224,999,25014,.23268977E-3,.99E-6,0
ONEWEB-0204,2021-031R,2026-06-30T17:04:15.851712,13.14503109,.00020105,87.8973,287.0087,88.2028,271.9332,0,U,48225,999,25003,-.55664377E-3,-.194E-5,0
ONEWEB-0205,2021-031S,2026-06-30T16:28:52.728960,13.14502169,.00022658,87.8981,287.0075,101.1190,259.0195,0,U,48226,999,25004,-.85865717E-4,-.19E-6,0
ONEWEB-0206,2021-031T,2026-06-30T17:39:39.273408,13.14503070,.00017821,87.8975,286.9987,99.6603,260.4728,0,U,48227,999,25000,-.63150818E-4,-.11E-6,0
ONEWEB-0182,2021-031U,2026-06-30T08:24:46.611072,13.14503698,.0001981,87.8973,287.0828,93.5416,266.5940,0,U,48228,999,25016,.37970984E-3,.154E-5,0
ONEWEB-0186,2021-031V,2026-06-30T06:51:08.942688,13.14503405,.00020941,87.8983,287.0874,100.8878,259.2488,0,U,48229,999,25010,.73435902E-3,.285E-5,0
ONEWEB-0181,2021-031W,2026-06-30T17:16:49.632096,13.14504411,.00021645,87.8963,287.0279,103.6228,256.5143,0,U,48230,999,25001,-.19079761E-3,-.58E-6,0
ONEWEB-0188,2021-031X,2026-06-30T09:03:34.792992,13.14501551,.00020239,87.8964,287.0954,99.5806,260.5553,0,U,48231,999,24987,-.21547538E-4,.5E-7,0
ONEWEB-0220,2021-031Y,2026-06-30T17:19:06.557088,13.14503500,.00022887,87.8979,287.0017,97.4717,262.6673,0,U,48232,999,25018,.1431335E-4,.18E-6,0
ONEWEB-0165,2021-031Z,2026-06-30T07:02:34.810080,13.14502887,.0002264,87.8971,287.0991,108.4503,251.6873,0,U,48233,999,25008,.55258478E-3,.218E-5,0
ONEWEB-0199,2021-031AA,2026-06-30T17:37:22.949760,13.14503107,.00017692,87.8979,286.9983,97.0427,263.0904,0,U,48234,999,25004,-.32385319E-3,-.107E-5,0
ONEWEB-0203,2021-031AB,2026-06-30T17:23:40.135776,13.14506967,.00021521,87.8974,287.0033,102.6771,257.4599,0,U,48235,999,25005,-.20620474E-2,-.752E-5,0
ONEWEB-0197,2021-031AC,2026-06-30T07:38:52.987776,13.14501583,.00021013,87.8968,287.0691,93.7864,266.3506,0,U,48236,999,24991,-.38325413E-3,-.129E-5,0
ONEWEB-0194,2021-031AD,2026-06-30T18:07:04.903104,13.14502815,.00017881,87.8977,287.0047,103.0340,257.0990,0,U,48237,999,25014,.33402066E-3,.137E-5,0
ONEWEB-0193,2021-031AE,2026-06-30T07:32:14.455680,13.14509559,.00015966,87.8970,287.0827,104.7769,255.3538,0,U,48238,999,25003,-.37445102E-2,-.1375E-4,0
ONEWEB-0191,2021-031AF,2026-06-30T16:56:19.243392,13.14505937,.00020067,87.8982,287.0051,95.6616,264.4743,0,U,48239,999,24994,-.61616705E-3,-.216E-5,0
ONEWEB-0195,2021-031AG,2026-06-30T16:23:10.729248,13.14502695,.00022835,87.8980,287.0098,106.6067,253.5314,0,U,48240,999,24992,.1195503E-3,.57E-6,0
ONEWEB-0201,2021-031AH,2026-06-30T17:55:50.583936,13.14502004,.00021451,87.8972,287.0119,93.9405,266.1970,0,U,48241,999,25016,.54824019E-3,.216E-5,0
ONEWEB-0207,2021-031AJ,2026-06-30T17:27:06.295680,13.14504417,.00021533,87.8977,287.0014,93.9691,266.1685,0,U,48242,999,25007,.25389316E-3,.107E-5,0
ONEWEB-0208,2021-031AK,2026-06-30T17:00:50.264640,13.14502870,.00021992,87.8974,287.0113,108.2033,251.9337,0,U,48243,999,25008,-.12633112E-2,-.456E-5,0
ONEWEB-0200,2021-031AL,2026-06-30T08:49:53.348448,13.14503326,.00020758,87.8981,287.0667,101.1260,259.0104,0,U,48244,999,24996,.37706978E-3,.153E-5,0
ONEWEB-0217,2021-031AM,2026-06-30T18:20:46.351104,13.14502016,.00022141,87.8982,286.9918,108.0363,252.1008,0,U,48245,999,24996,-.8588096E-4,-.19E-6,0
