[
  {
    "name": "ONEWEB-0198",
    "noradId": "48216",
    "line1": "1 48216U 21031G   26181.31896212 -.00000122  00000+0 -36487-3 0  9995",
    "line2": "2 48216  87.8963 287.0938 0002339 107.8553 252.2832 13.14503385250214"
  },
  {
    "name": "ONEWEB-0189",
    "noradId": "48217",
    "line1": "1 48217U 21031H   26181.71209344 -.00000312  00000+0 -87560-3 0  9993",
    "line2": "2 48217  87.8974 287.0031 0002211 107.1281 253.0091 13.14503215250006"
  },
  {
    "name": "ONEWEB-0196",
    "noradId": "48218",
    "line1": "1 48218U 21031J   26181.68989415 -.00000144  00000+0 -42195-3 0  9992",
    "line2": "2 48218  87.8975 287.0160 0002112 101.8402 258.2965 13.14502945250003"
  },
  {
    "name": "ONEWEB-0183",
    "noradId": "48219",
    "line1": "1 48219U 21031K   26181.74063541  .00000215  00000+0  54531-3 0  9997",
    "line2": "2 48219  87.8970 287.0039 0001999  94.8087 265.3271 13.14504434250101"
  },
  {
    "name": "ONEWEB-0185",
    "noradId": "48220",
    "line1": "1 48220U 21031L   26181.69068372 -.00000060  00000+0 -19759-3 0  9993",
    "line2": "2 48220  87.8980 287.0084 0002343  94.5838 265.5560 13.14503111250024"
  },
  {
    "name": "ONEWEB-0187",
    "noradId": "48221",
    "line1": "1 48221U 21031M   26181.74684437  .00000282  00000+0  72732-3 0  9990",
    "line2": "2 48221  87.8969 287.0114 0002182 100.7719 259.3657 13.14502218250042"
  },
  {
    "name": "ONEWEB-0192",
    "noradId": "48222",
    "line1": "1 48222U 21031N   26181.71685836 -.00000083  00000+0 -25840-3 0  9991",
    "line2": "2 48222  87.8971 287.0080 0002046 103.4624 256.6734 13.14502800249953"
  },
  {
    "name": "ONEWEB-0219",
    "noradId": "48223",
    "line1": "1 48223U 21031P   26181.31564184 -.00000081  00000+0 -25418-3 0  9999",
    "line2": "2 48223  87.8975 287.0802 0002224  99.2604 260.8778 13.14502269250101"
  },
  {
    "name": "ONEWEB-0202",
    "noradId": "48224",
    "line1": "1 48224U 21031Q   26181.75333241  .00000099  00000+0  23269-3 0  9995",
    "line2": "2 48224  87.8974 287.0056 0002300 116.6575 243.4791 13.14503496250147"
  },
  {
    "name": "ONEWEB-0204",
    "noradId": "48225",
    "line1": "1 48225U 21031R   26181.71129458 -.00000194  00000+0 -55664-3 0  9997",
    "line2": "2 48225  87.8973 287.0087 0002010  88.2028 271.9332 13.14503109250032"
  },
  {
    "name": "ONEWEB-0205",
    "noradId": "48226",
    "line1": "1 48226U 21031S   26181.68672140 -.00000019  00000+0 -85866-4 0  9999",
    "line2": "2 48226  87.8981 287.0075 0002265 101.1190 259.0195 13.14502169250046"
  },
  {
    "name": "ONEWEB-0206",
    "noradId": "48227",
    "line1": "1 48227U 21031T   26181.73587122 -.00000011  00000+0 -63151-4 0  9996",
    "line2": "2 48227  87.8975 286.9987 0001782  99.6603 260.4728 13.14503070250009"
  },
  {
    "name": "ONEWEB-0182",
    "noradId": "48228",
    "line1": "1 48228U 21031U   26181.35053948  .00000154  00000+0  37971-3 0  9995",
    "line2": "2 48228  87.8973 287.0828 0001981  93.5416 266.5940 13.14503698250166"
  },
  {
    "name": "ONEWEB-0186",
    "noradId": "48229",
    "line1": "1 48229U 21031V   26181.28552017  .00000285  00000+0  73436-3 0  9990",
    "line2": "2 48229  87.8983 287.0874 0002094 100.8878 259.2488 13.14503405250105"
  },
  {
    "name": "ONEWEB-0181",
    "noradId": "48230",
    "line1": "1 48230U 21031W   26181.72001889 -.00000058  00000+0 -19080-3 0  9992",
    "line2": "2 48230  87.8963 287.0279 0002164 103.6228 256.5143 13.14504411250018"
  },
  {
    "name": "ONEWEB-0188",
    "noradId": "48231",
    "line1": "1 48231U 21031X   26181.37748603  .00000005  00000+0 -21548-4 0  9990",
    "line2": "2 48231  87.8964 287.0954 0002023  99.5806 260.5553 13.14501551249873"
  },
  {
    "name": "ONEWEB-0220",
    "noradId": "48232",
    "line1": "1 48232U 21031Y   26181.72160367  .00000018  00000+0  14313-4 0  9990",
    "line2": "2 48232  87.8979 287.0017 0002288  97.4717 262.6673 13.14503500250189"
  },
  {
    "name": "ONEWEB-0165",
    "noradId": "48233",
    "line1": "1 48233U 21031Z   26181.29345845  .00000218  00000+0  55258-3 0  9993",
    "line2": "2 48233  87.8971 287.0991 0002264 108.4503 251.6873 13.14502887250089"
  },
  {
    "name": "ONEWEB-0199",
    "noradId": "48234",
    "line1": "1 48234U 21031AA  26181.73429340 -.00000107  00000+0 -32385-3 0  9991",
    "line2": "2 48234  87.8979 286.9983 0001769  97.0427 263.0904 13.14503107250048"
  },
  {
    "name": "ONEWEB-0203",
    "noradId": "48235",
    "line1": "1 48235U 21031AB  26181.72477009 -.00000752  00000+0 -20620-2 0  9990",
    "line2": "2 48235  87.8974 287.0033 0002152 102.6771 257.4599 13.14506967250059"
  },
  {
    "name": "ONEWEB-0197",
    "noradId": "48236",
    "line1": "1 48236U 21031AC  26181.31866884 -.00000129  00000+0 -38325-3 0  9999",
    "line2": "2 48236  87.8968 287.0691 0002101  93.7864 266.3506 13.14501583249919"
  },
  {
    "name": "ONEWEB-0194",
    "noradId": "48237",
    "line1": "1 48237U 21031AD  26181.75491786  .00000137  00000+0  33402-3 0  9991",
    "line2": "2 48237  87.8977 287.0047 0001788 103.0340 257.0990 13.14502815250149"
  },
  {
    "name": "ONEWEB-0193",
    "noradId": "48238",
    "line1": "1 48238U 21031AE  26181.31405620 -.00001375  00000+0 -37445-2 0  9993",
    "line2": "2 48238  87.8970 287.0827 0001596 104.7769 255.3538 13.14509559250038"
  },
  {
    "name": "ONEWEB-0191",
    "noradId": "48239",
    "line1": "1 48239U 21031AF  26181.70577828 -.00000216  00000+0 -61617-3 0  9999",
    "line2": "2 48239  87.8982 287.0051 0002006  95.6616 264.4743 13.14505937249940"
  },
  {
    "name": "ONEWEB-0195",
    "noradId": "48240",
    "line1": "1 48240U 21031AG  26181.68276307  .00000057  00000+0  11955-3 0  9997",
    "line2": "2 48240  87.8980 287.0098 0002283 106.6067 253.5314 13.14502695249920"
  },
  {
    "name": "ONEWEB-0201",
    "noradId": "48241",
    "line1": "1 48241U 21031AH  26181.74711324  .00000216  00000+0  54824-3 0  9997",
    "line2": "2 48241  87.8972 287.0119 0002145  93.9405 266.1970 13.14502004250167"
  },
  {
    "name": "ONEWEB-0207",
    "noradId": "48242",
    "line1": "1 48242U 21031AJ  26181.72715620  .00000107  00000+0  25389-3 0  9992",
    "line2": "2 48242  87.8977 287.0014 0002153  93.9691 266.1685 13.14504417250076"
  },
  {
    "name": "ONEWEB-0208",
    "noradId": "48243",
    "line1": "1 48243U 21031AK  26181.70891510 -.00000456  00000+0 -12633-2 0  9990",
    "line2": "2 48243  87.8974 287.0113 0002199 108.2033 251.9337 13.14502870250082"
  },
  {
    "name": "ONEWEB-0200",
    "noradId": "48244",
    "line1": "1 48244U 21031AL  26181.36797857  .00000153  00000+0  37707-3 0  9994",
    "line2": "2 48244  87.8981 287.0667 0002075 101.1260 259.0104 13.14503326249965"
  },
  {
    "name": "ONEWEB-0217",
    "noradId": "48245",
    "line1": "1 48245U 21031AM  26181.76442536 -.00000019  00000+0 -85881-4 0  9990",
    "line2": "2 48245  87.8982 286.9918 0002214 108.0363 252.1008 13.14502016249961"
  }
]